STARLINK-31372          
1 58939U 24027J   26068.93959115  .00003510  00000+0  13063-3 0  9997
2 58939  53.1594 308.6676 0000871  81.1428 278.9672 15.30189208117365
HERMES-3                
1 63835U 25052BR  26068.93751242  .00020316  00000+0  69958-3 0  9995
2 63835  97.3987 324.6131 0007993 112.9583 247.2502 15.30039785 54863
